<?xml version='1.0' encoding='utf-8'?>
<gpx version="1.1" creator="corfu-scooter-gpx+brouter-car-eco" xmlns="http://www.topografix.com/GPX/1/1" xmlns:xsi="http://www.w3.org/2001/XMLSchema-instance" xsi:schemaLocation="http://www.topografix.com/GPX/1/1 http://www.topografix.com/GPX/1/1/gpx.xsd"><metadata><name>Noc: CFU → Blue Sea Benitses</name><desc>NOCNA trasa lotnisko CFU → Blue Sea Benitses | Επαρ.Οδ. Βρυώνης-Αγίου Νικολάου 1, Benitses, 490 84 | ~12.0 km | ~20m 9s | 7 WP | BRouter car-eco (EO glowna, oswietlona) | bez skrotow przez wioski / Old Town</desc><time>2026-09-07T14:04:21Z</time></metadata><wpt lat="39.601864" lon="19.911698"><name>01 Lotnisko CFU (start)</name><desc>Terminal / parking wypozyczalni. Jedz za znakami wyjazd. Noc: duze drogi, bez skrotow.</desc></wpt><wpt lat="39.605156" lon="19.915434"><name>02 Wjazd EO Lefkimmi</name><desc>Wjazd na glowna krajowa w kierunku Lefkimmi / Achilleion. NIE Port / Town center.</desc></wpt><wpt lat="39.595500" lon="19.920000"><name>03 Prosto Lefkimmi (swiatla)</name><desc>Skrzyzowanie — PROSTO na Lefkimmi. Ignoruj zjazdy w miasto.</desc></wpt><wpt lat="39.582927" lon="19.914929"><name>04 Perama nad morzem</name><desc>Odcinek nadmorski. Trzymaj glowna jezdnie na poludnie. Bez skokow w gory.</desc></wpt><wpt lat="39.570922" lon="19.910571"><name>05 EO poludnie → Benitses</name><desc>Znaki Benitses / Moraitika / Lefkimmi. Cala czas glowna EO.</desc></wpt><wpt lat="39.552043" lon="19.912529"><name>06 Przed Benitses — zwolnij</name><desc>Wjazd do wioski. Zwolnij. Hotel jest przy glownej ulicy EO.</desc></wpt><wpt lat="39.544270" lon="19.913950"><name>07 META: Blue Sea Benitses</name><desc>Επαρ.Οδ. Βρυώνης-Αγίου Νικολάου 1, Benitses, 490 84. Przy glownej EO (obok Potamaki Beach Hotel / promenada). Szukaj tabliczki Blue Sea. Parking prywatny. Jesli miniesz — zawroc na glownej, nie wjezdzaj w ciemne boczne.</desc><type>hotel</type><cmt>Επαρ.Οδ. Βρυώνης-Αγίου Νικολάου 1, Benitses, 490 84</cmt></wpt><rte><name>Noc: CFU → Blue Sea Benitses</name><rtept lat="39.601864" lon="19.911698"><name>01 Lotnisko CFU (start)</name></rtept><rtept lat="39.605156" lon="19.915434"><name>02 Wjazd EO Lefkimmi</name></rtept><rtept lat="39.595500" lon="19.920000"><name>03 Prosto Lefkimmi (swiatla)</name></rtept><rtept lat="39.582927" lon="19.914929"><name>04 Perama nad morzem</name></rtept><rtept lat="39.570922" lon="19.910571"><name>05 EO poludnie → Benitses</name></rtept><rtept lat="39.552043" lon="19.912529"><name>06 Przed Benitses — zwolnij</name></rtept><rtept lat="39.544270" lon="19.913950"><name>07 META: Blue Sea Benitses</name></rtept></rte><trk><name>Noc CFU → Blue Sea Benitses (EO)</name><trkseg><trkpt lat="39.605020" lon="19.915229"><ele>-0.5</ele></trkpt><trkpt lat="39.605001" lon="19.915286"><ele>-0.8</ele></trkpt><trkpt lat="39.605009" lon="19.915361"><ele>-0.8</ele></trkpt><trkpt lat="39.605033" lon="19.915397"><ele>-0.5</ele></trkpt><trkpt lat="39.605059" lon="19.915418"><ele>0.0</ele></trkpt><trkpt lat="39.605156" lon="19.915434"><ele>0.0</ele></trkpt><trkpt lat="39.606543" lon="19.915445"><ele>1.5</ele></trkpt><trkpt lat="39.606671" lon="19.915441"><ele>1.5</ele></trkpt><trkpt lat="39.606807" lon="19.915468"><ele>1.8</ele></trkpt><trkpt lat="39.607392" lon="19.915486"><ele>2.5</ele></trkpt><trkpt lat="39.608417" lon="19.915489"><ele>2.5</ele></trkpt><trkpt lat="39.608698" lon="19.915498"><ele>2.0</ele></trkpt><trkpt lat="39.608807" lon="19.915489"><ele>2.0</ele></trkpt><trkpt lat="39.608882" lon="19.915473"><ele>2.0</ele></trkpt><trkpt lat="39.609003" lon="19.915425"><ele>2.0</ele></trkpt><trkpt lat="39.609093" lon="19.915362"><ele>2.0</ele></trkpt><trkpt lat="39.609144" lon="19.915300"><ele>2.0</ele></trkpt><trkpt lat="39.609185" lon="19.915221"><ele>2.0</ele></trkpt><trkpt lat="39.609229" lon="19.915074"><ele>2.0</ele></trkpt><trkpt lat="39.609259" lon="19.914922"><ele>1.5</ele></trkpt><trkpt lat="39.609285" lon="19.914804"><ele>0.5</ele></trkpt><trkpt lat="39.609321" lon="19.914696"><ele>0.0</ele></trkpt><trkpt lat="39.609373" lon="19.914604"><ele>-0.2</ele></trkpt><trkpt lat="39.609426" lon="19.914547"><ele>-0.8</ele></trkpt><trkpt lat="39.609480" lon="19.914519"><ele>-1.0</ele></trkpt><trkpt lat="39.609931" lon="19.914400"><ele>-1.0</ele></trkpt><trkpt lat="39.610150" lon="19.914347"><ele>0.0</ele></trkpt><trkpt lat="39.610533" lon="19.914253"><ele>0.5</ele></trkpt><trkpt lat="39.611037" lon="19.914130"><ele>1.2</ele></trkpt><trkpt lat="39.611563" lon="19.914001"><ele>2.2</ele></trkpt><trkpt lat="39.611600" lon="19.913992"><ele>2.2</ele></trkpt><trkpt lat="39.611711" lon="19.913965"><ele>2.8</ele></trkpt><trkpt lat="39.611714" lon="19.913855"><ele>2.5</ele></trkpt><trkpt lat="39.611730" lon="19.913755"><ele>2.8</ele></trkpt><trkpt lat="39.611751" lon="19.913637"><ele>3.0</ele></trkpt><trkpt lat="39.611787" lon="19.913432"><ele>3.5</ele></trkpt><trkpt lat="39.611945" lon="19.912853"><ele>2.0</ele></trkpt><trkpt lat="39.611997" lon="19.912618"><ele>2.0</ele></trkpt><trkpt lat="39.612065" lon="19.912434"><ele>2.0</ele></trkpt><trkpt lat="39.612259" lon="19.911928"><ele>3.0</ele></trkpt><trkpt lat="39.612308" lon="19.911789"><ele>3.0</ele></trkpt><trkpt lat="39.612354" lon="19.911664"><ele>2.8</ele></trkpt><trkpt lat="39.612410" lon="19.911506"><ele>1.8</ele></trkpt><trkpt lat="39.612529" lon="19.911207"><ele>1.2</ele></trkpt><trkpt lat="39.612630" lon="19.910901"><ele>1.8</ele></trkpt><trkpt lat="39.612667" lon="19.910718"><ele>2.0</ele></trkpt><trkpt lat="39.612701" lon="19.910408"><ele>2.5</ele></trkpt><trkpt lat="39.612714" lon="19.910288"><ele>2.8</ele></trkpt><trkpt lat="39.612724" lon="19.910198"><ele>2.8</ele></trkpt><trkpt lat="39.612730" lon="19.910140"><ele>3.0</ele></trkpt><trkpt lat="39.612775" lon="19.909934"><ele>3.2</ele></trkpt><trkpt lat="39.612792" lon="19.909863"><ele>3.5</ele></trkpt><trkpt lat="39.612810" lon="19.909815"><ele>3.5</ele></trkpt><trkpt lat="39.612600" lon="19.909152"><ele>0.8</ele></trkpt><trkpt lat="39.612462" lon="19.908722"><ele>2.0</ele></trkpt><trkpt lat="39.612361" lon="19.908442"><ele>2.0</ele></trkpt><trkpt lat="39.612301" lon="19.908293"><ele>2.2</ele></trkpt><trkpt lat="39.612130" lon="19.907906"><ele>4.0</ele></trkpt><trkpt lat="39.612104" lon="19.907856"><ele>4.0</ele></trkpt><trkpt lat="39.612044" lon="19.907745"><ele>4.0</ele></trkpt><trkpt lat="39.611855" lon="19.907470"><ele>3.5</ele></trkpt><trkpt lat="39.611649" lon="19.907182"><ele>5.0</ele></trkpt><trkpt lat="39.611475" lon="19.906938"><ele>5.0</ele></trkpt><trkpt lat="39.611346" lon="19.906729"><ele>5.0</ele></trkpt><trkpt lat="39.611287" lon="19.906608"><ele>5.0</ele></trkpt><trkpt lat="39.611223" lon="19.906419"><ele>5.0</ele></trkpt><trkpt lat="39.611171" lon="19.906199"><ele>5.0</ele></trkpt><trkpt lat="39.611154" lon="19.906119"><ele>5.0</ele></trkpt><trkpt lat="39.611086" lon="19.905804"><ele>4.5</ele></trkpt><trkpt lat="39.610967" lon="19.905196"><ele>2.8</ele></trkpt><trkpt lat="39.610955" lon="19.905133"><ele>2.8</ele></trkpt><trkpt lat="39.610942" lon="19.905073"><ele>2.8</ele></trkpt><trkpt lat="39.610937" lon="19.904952"><ele>2.8</ele></trkpt><trkpt lat="39.610910" lon="19.904760"><ele>3.5</ele></trkpt><trkpt lat="39.610899" lon="19.904571"><ele>3.8</ele></trkpt><trkpt lat="39.610901" lon="19.904510"><ele>3.8</ele></trkpt><trkpt lat="39.610901" lon="19.904479"><ele>3.8</ele></trkpt><trkpt lat="39.610915" lon="19.904387"><ele>3.5</ele></trkpt><trkpt lat="39.610958" lon="19.904289"><ele>3.5</ele></trkpt><trkpt lat="39.610915" lon="19.904197"><ele>3.5</ele></trkpt><trkpt lat="39.610885" lon="19.904123"><ele>3.5</ele></trkpt><trkpt lat="39.610804" lon="19.903888"><ele>3.0</ele></trkpt><trkpt lat="39.610739" lon="19.903661"><ele>3.0</ele></trkpt><trkpt lat="39.610705" lon="19.903537"><ele>3.0</ele></trkpt><trkpt lat="39.610635" lon="19.903325"><ele>3.0</ele></trkpt><trkpt lat="39.610632" lon="19.903313"><ele>3.0</ele></trkpt><trkpt lat="39.610571" lon="19.903053"><ele>5.0</ele></trkpt><trkpt lat="39.610349" lon="19.902120"><ele>10.0</ele></trkpt><trkpt lat="39.610243" lon="19.901612"><ele>9.8</ele></trkpt><trkpt lat="39.610211" lon="19.901459"><ele>10.0</ele></trkpt><trkpt lat="39.610149" lon="19.901124"><ele>9.0</ele></trkpt><trkpt lat="39.610098" lon="19.900897"><ele>8.0</ele></trkpt><trkpt lat="39.610088" lon="19.900854"><ele>7.8</ele></trkpt><trkpt lat="39.610074" lon="19.900798"><ele>7.8</ele></trkpt><trkpt lat="39.610033" lon="19.900653"><ele>7.8</ele></trkpt><trkpt lat="39.610016" lon="19.900595"><ele>8.0</ele></trkpt><trkpt lat="39.609972" lon="19.900456"><ele>8.0</ele></trkpt><trkpt lat="39.609924" lon="19.900313"><ele>8.0</ele></trkpt><trkpt lat="39.609912" lon="19.900275"><ele>8.0</ele></trkpt><trkpt lat="39.609877" lon="19.900177"><ele>8.0</ele></trkpt><trkpt lat="39.609740" lon="19.899821"><ele>9.2</ele></trkpt><trkpt lat="39.609660" lon="19.899649"><ele>10.0</ele></trkpt><trkpt lat="39.609552" lon="19.899478"><ele>10.0</ele></trkpt><trkpt lat="39.609510" lon="19.899426"><ele>10.0</ele></trkpt><trkpt lat="39.609386" lon="19.899298"><ele>8.8</ele></trkpt><trkpt lat="39.609238" lon="19.899156"><ele>6.0</ele></trkpt><trkpt lat="39.609174" lon="19.899093"><ele>4.8</ele></trkpt><trkpt lat="39.609023" lon="19.898942"><ele>4.0</ele></trkpt><trkpt lat="39.608993" lon="19.898911"><ele>4.0</ele></trkpt><trkpt lat="39.608639" lon="19.898538"><ele>4.0</ele></trkpt><trkpt lat="39.608475" lon="19.898336"><ele>4.0</ele></trkpt><trkpt lat="39.608269" lon="19.898040"><ele>4.0</ele></trkpt><trkpt lat="39.608053" lon="19.897671"><ele>4.0</ele></trkpt><trkpt lat="39.608008" lon="19.897584"><ele>4.0</ele></trkpt><trkpt lat="39.607952" lon="19.897474"><ele>3.8</ele></trkpt><trkpt lat="39.607867" lon="19.897302"><ele>3.2</ele></trkpt><trkpt lat="39.607813" lon="19.897192"><ele>3.0</ele></trkpt><trkpt lat="39.607744" lon="19.897042"><ele>3.0</ele></trkpt><trkpt lat="39.607648" lon="19.896832"><ele>3.0</ele></trkpt><trkpt lat="39.607530" lon="19.896562"><ele>4.0</ele></trkpt><trkpt lat="39.607151" lon="19.895727"><ele>7.5</ele></trkpt><trkpt lat="39.606980" lon="19.895331"><ele>10.0</ele></trkpt><trkpt lat="39.606863" lon="19.895075"><ele>9.2</ele></trkpt><trkpt lat="39.606761" lon="19.894887"><ele>9.0</ele></trkpt><trkpt lat="39.606666" lon="19.894733"><ele>8.8</ele></trkpt><trkpt lat="39.606574" lon="19.894601"><ele>9.0</ele></trkpt><trkpt lat="39.606549" lon="19.894571"><ele>9.0</ele></trkpt><trkpt lat="39.606515" lon="19.894529"><ele>9.0</ele></trkpt><trkpt lat="39.606454" lon="19.894461"><ele>9.0</ele></trkpt><trkpt lat="39.606380" lon="19.894398"><ele>9.0</ele></trkpt><trkpt lat="39.606346" lon="19.894373"><ele>9.0</ele></trkpt><trkpt lat="39.606244" lon="19.894296"><ele>9.0</ele></trkpt><trkpt lat="39.606156" lon="19.894240"><ele>9.0</ele></trkpt><trkpt lat="39.606023" lon="19.894174"><ele>8.5</ele></trkpt><trkpt lat="39.605962" lon="19.894152"><ele>8.5</ele></trkpt><trkpt lat="39.605873" lon="19.894130"><ele>8.5</ele></trkpt><trkpt lat="39.605737" lon="19.894117"><ele>8.5</ele></trkpt><trkpt lat="39.605580" lon="19.894130"><ele>8.2</ele></trkpt><trkpt lat="39.605521" lon="19.894143"><ele>8.2</ele></trkpt><trkpt lat="39.605343" lon="19.894202"><ele>8.0</ele></trkpt><trkpt lat="39.604630" lon="19.894531"><ele>8.0</ele></trkpt><trkpt lat="39.604188" lon="19.894724"><ele>9.8</ele></trkpt><trkpt lat="39.603411" lon="19.895086"><ele>12.5</ele></trkpt><trkpt lat="39.603250" lon="19.895143"><ele>14.0</ele></trkpt><trkpt lat="39.603171" lon="19.895161"><ele>14.0</ele></trkpt><trkpt lat="39.603082" lon="19.895171"><ele>13.8</ele></trkpt><trkpt lat="39.602988" lon="19.895163"><ele>14.0</ele></trkpt><trkpt lat="39.602898" lon="19.895141"><ele>14.0</ele></trkpt><trkpt lat="39.602751" lon="19.895077"><ele>14.0</ele></trkpt><trkpt lat="39.602418" lon="19.894882"><ele>16.8</ele></trkpt><trkpt lat="39.602154" lon="19.894744"><ele>17.8</ele></trkpt><trkpt lat="39.601888" lon="19.894625"><ele>16.8</ele></trkpt><trkpt lat="39.601698" lon="19.894556"><ele>13.5</ele></trkpt><trkpt lat="39.601593" lon="19.894518"><ele>13.0</ele></trkpt><trkpt lat="39.601142" lon="19.894366"><ele>13.0</ele></trkpt><trkpt lat="39.600655" lon="19.894189"><ele>10.0</ele></trkpt><trkpt lat="39.600223" lon="19.894032"><ele>9.0</ele></trkpt><trkpt lat="39.599813" lon="19.893882"><ele>9.0</ele></trkpt><trkpt lat="39.599596" lon="19.893813"><ele>9.0</ele></trkpt><trkpt lat="39.598854" lon="19.893676"><ele>6.0</ele></trkpt><trkpt lat="39.598090" lon="19.893518"><ele>4.0</ele></trkpt><trkpt lat="39.597552" lon="19.893391"><ele>4.0</ele></trkpt><trkpt lat="39.597064" lon="19.893284"><ele>3.8</ele></trkpt><trkpt lat="39.596975" lon="19.893264"><ele>3.8</ele></trkpt><trkpt lat="39.595778" lon="19.892981"><ele>2.0</ele></trkpt><trkpt lat="39.595265" lon="19.892859"><ele>2.0</ele></trkpt><trkpt lat="39.595004" lon="19.892794"><ele>4.8</ele></trkpt><trkpt lat="39.594680" lon="19.892738"><ele>5.0</ele></trkpt><trkpt lat="39.594372" lon="19.892695"><ele>5.8</ele></trkpt><trkpt lat="39.593831" lon="19.892675"><ele>8.0</ele></trkpt><trkpt lat="39.593651" lon="19.892668"><ele>8.0</ele></trkpt><trkpt lat="39.593018" lon="19.892633"><ele>12.0</ele></trkpt><trkpt lat="39.592401" lon="19.892587"><ele>13.0</ele></trkpt><trkpt lat="39.592378" lon="19.892585"><ele>13.0</ele></trkpt><trkpt lat="39.592321" lon="19.892587"><ele>13.0</ele></trkpt><trkpt lat="39.592006" lon="19.892617"><ele>13.0</ele></trkpt><trkpt lat="39.591872" lon="19.892635"><ele>13.0</ele></trkpt><trkpt lat="39.591100" lon="19.892761"><ele>12.8</ele></trkpt><trkpt lat="39.591091" lon="19.892763"><ele>12.8</ele></trkpt><trkpt lat="39.590972" lon="19.892785"><ele>12.2</ele></trkpt><trkpt lat="39.590862" lon="19.892816"><ele>12.0</ele></trkpt><trkpt lat="39.590775" lon="19.892851"><ele>12.0</ele></trkpt><trkpt lat="39.590477" lon="19.892988"><ele>12.0</ele></trkpt><trkpt lat="39.590499" lon="19.893434"><ele>10.0</ele></trkpt><trkpt lat="39.590503" lon="19.893666"><ele>10.0</ele></trkpt><trkpt lat="39.590492" lon="19.893792"><ele>10.0</ele></trkpt><trkpt lat="39.590397" lon="19.894079"><ele>10.0</ele></trkpt><trkpt lat="39.590370" lon="19.894212"><ele>10.0</ele></trkpt><trkpt lat="39.590365" lon="19.894282"><ele>10.0</ele></trkpt><trkpt lat="39.590368" lon="19.894350"><ele>10.0</ele></trkpt><trkpt lat="39.590396" lon="19.894483"><ele>10.0</ele></trkpt><trkpt lat="39.590418" lon="19.894553"><ele>10.0</ele></trkpt><trkpt lat="39.590505" lon="19.894720"><ele>10.0</ele></trkpt><trkpt lat="39.590599" lon="19.894916"><ele>10.0</ele></trkpt><trkpt lat="39.590630" lon="19.895061"><ele>10.0</ele></trkpt><trkpt lat="39.590643" lon="19.895155"><ele>10.0</ele></trkpt><trkpt lat="39.590644" lon="19.895265"><ele>10.0</ele></trkpt><trkpt lat="39.590643" lon="19.895644"><ele>9.5</ele></trkpt><trkpt lat="39.590640" lon="19.895941"><ele>9.0</ele></trkpt><trkpt lat="39.590632" lon="19.896108"><ele>9.0</ele></trkpt><trkpt lat="39.590624" lon="19.896464"><ele>8.5</ele></trkpt><trkpt lat="39.590642" lon="19.896681"><ele>8.0</ele></trkpt><trkpt lat="39.590719" lon="19.897170"><ele>8.0</ele></trkpt><trkpt lat="39.590719" lon="19.897278"><ele>7.2</ele></trkpt><trkpt lat="39.590701" lon="19.897381"><ele>6.2</ele></trkpt><trkpt lat="39.590663" lon="19.897517"><ele>5.0</ele></trkpt><trkpt lat="39.590623" lon="19.897607"><ele>5.0</ele></trkpt><trkpt lat="39.590535" lon="19.897742"><ele>5.0</ele></trkpt><trkpt lat="39.590496" lon="19.897789"><ele>5.0</ele></trkpt><trkpt lat="39.590445" lon="19.897833"><ele>5.0</ele></trkpt><trkpt lat="39.590296" lon="19.897900"><ele>5.0</ele></trkpt><trkpt lat="39.590200" lon="19.897958"><ele>6.2</ele></trkpt><trkpt lat="39.590130" lon="19.898012"><ele>7.5</ele></trkpt><trkpt lat="39.590081" lon="19.898059"><ele>8.2</ele></trkpt><trkpt lat="39.590058" lon="19.898092"><ele>8.2</ele></trkpt><trkpt lat="39.589994" lon="19.898218"><ele>7.0</ele></trkpt><trkpt lat="39.589912" lon="19.898439"><ele>5.0</ele></trkpt><trkpt lat="39.589859" lon="19.898619"><ele>5.0</ele></trkpt><trkpt lat="39.589750" lon="19.898938"><ele>4.8</ele></trkpt><trkpt lat="39.589696" lon="19.899072"><ele>4.2</ele></trkpt><trkpt lat="39.589624" lon="19.899220"><ele>4.0</ele></trkpt><trkpt lat="39.589505" lon="19.899499"><ele>4.0</ele></trkpt><trkpt lat="39.589433" lon="19.899707"><ele>4.2</ele></trkpt><trkpt lat="39.589358" lon="19.900005"><ele>4.5</ele></trkpt><trkpt lat="39.589318" lon="19.900112"><ele>5.2</ele></trkpt><trkpt lat="39.589284" lon="19.900175"><ele>5.8</ele></trkpt><trkpt lat="39.589210" lon="19.900263"><ele>7.0</ele></trkpt><trkpt lat="39.588883" lon="19.900563"><ele>7.8</ele></trkpt><trkpt lat="39.588691" lon="19.900745"><ele>5.2</ele></trkpt><trkpt lat="39.588398" lon="19.900999"><ele>4.8</ele></trkpt><trkpt lat="39.588243" lon="19.901124"><ele>5.0</ele></trkpt><trkpt lat="39.588127" lon="19.901203"><ele>5.0</ele></trkpt><trkpt lat="39.587698" lon="19.901398"><ele>5.2</ele></trkpt><trkpt lat="39.587486" lon="19.901501"><ele>5.5</ele></trkpt><trkpt lat="39.587321" lon="19.901596"><ele>5.2</ele></trkpt><trkpt lat="39.587236" lon="19.901657"><ele>5.0</ele></trkpt><trkpt lat="39.586924" lon="19.901948"><ele>5.0</ele></trkpt><trkpt lat="39.586708" lon="19.902172"><ele>5.0</ele></trkpt><trkpt lat="39.586633" lon="19.902244"><ele>5.0</ele></trkpt><trkpt lat="39.586280" lon="19.902586"><ele>5.0</ele></trkpt><trkpt lat="39.585881" lon="19.902999"><ele>8.2</ele></trkpt><trkpt lat="39.585725" lon="19.903229"><ele>7.0</ele></trkpt><trkpt lat="39.585670" lon="19.903331"><ele>6.0</ele></trkpt><trkpt lat="39.585628" lon="19.903427"><ele>6.0</ele></trkpt><trkpt lat="39.585596" lon="19.903530"><ele>6.0</ele></trkpt><trkpt lat="39.585576" lon="19.903647"><ele>5.8</ele></trkpt><trkpt lat="39.585569" lon="19.903749"><ele>6.0</ele></trkpt><trkpt lat="39.585578" lon="19.903861"><ele>6.0</ele></trkpt><trkpt lat="39.585633" lon="19.904315"><ele>5.0</ele></trkpt><trkpt lat="39.585641" lon="19.904422"><ele>5.0</ele></trkpt><trkpt lat="39.585625" lon="19.904688"><ele>5.0</ele></trkpt><trkpt lat="39.585499" lon="19.905495"><ele>6.0</ele></trkpt><trkpt lat="39.585336" lon="19.906455"><ele>2.8</ele></trkpt><trkpt lat="39.585307" lon="19.906657"><ele>2.0</ele></trkpt><trkpt lat="39.585240" lon="19.907089"><ele>2.5</ele></trkpt><trkpt lat="39.585216" lon="19.907347"><ele>2.2</ele></trkpt><trkpt lat="39.585207" lon="19.907593"><ele>1.8</ele></trkpt><trkpt lat="39.585215" lon="19.907790"><ele>1.5</ele></trkpt><trkpt lat="39.585220" lon="19.907914"><ele>1.5</ele></trkpt><trkpt lat="39.585224" lon="19.908022"><ele>1.5</ele></trkpt><trkpt lat="39.585226" lon="19.908064"><ele>1.5</ele></trkpt><trkpt lat="39.585265" lon="19.908789"><ele>2.0</ele></trkpt><trkpt lat="39.585303" lon="19.909079"><ele>2.5</ele></trkpt><trkpt lat="39.585367" lon="19.909370"><ele>3.0</ele></trkpt><trkpt lat="39.585424" lon="19.909538"><ele>3.0</ele></trkpt><trkpt lat="39.585497" lon="19.909730"><ele>3.0</ele></trkpt><trkpt lat="39.585555" lon="19.909871"><ele>3.5</ele></trkpt><trkpt lat="39.585706" lon="19.910112"><ele>4.0</ele></trkpt><trkpt lat="39.585941" lon="19.910485"><ele>2.8</ele></trkpt><trkpt lat="39.586376" lon="19.911119"><ele>2.8</ele></trkpt><trkpt lat="39.586562" lon="19.911380"><ele>1.5</ele></trkpt><trkpt lat="39.586684" lon="19.911545"><ele>0.5</ele></trkpt><trkpt lat="39.586747" lon="19.911617"><ele>0.2</ele></trkpt><trkpt lat="39.586977" lon="19.911824"><ele>-1.0</ele></trkpt><trkpt lat="39.586996" lon="19.911843"><ele>-1.0</ele></trkpt><trkpt lat="39.587080" lon="19.911968"><ele>-1.0</ele></trkpt><trkpt lat="39.587105" lon="19.912033"><ele>-1.0</ele></trkpt><trkpt lat="39.587127" lon="19.912103"><ele>-1.0</ele></trkpt><trkpt lat="39.587150" lon="19.912280"><ele>-0.5</ele></trkpt><trkpt lat="39.587150" lon="19.912373"><ele>0.0</ele></trkpt><trkpt lat="39.587125" lon="19.912561"><ele>1.0</ele></trkpt><trkpt lat="39.587102" lon="19.912652"><ele>1.0</ele></trkpt><trkpt lat="39.587069" lon="19.912726"><ele>1.0</ele></trkpt><trkpt lat="39.587023" lon="19.912799"><ele>1.0</ele></trkpt><trkpt lat="39.586877" lon="19.912976"><ele>4.5</ele></trkpt><trkpt lat="39.586826" lon="19.913060"><ele>6.0</ele></trkpt><trkpt lat="39.586663" lon="19.913431"><ele>12.0</ele></trkpt><trkpt lat="39.586583" lon="19.913590"><ele>12.0</ele></trkpt><trkpt lat="39.586491" lon="19.913745"><ele>12.0</ele></trkpt><trkpt lat="39.586349" lon="19.913913"><ele>11.2</ele></trkpt><trkpt lat="39.586199" lon="19.914067"><ele>6.8</ele></trkpt><trkpt lat="39.586110" lon="19.914147"><ele>4.5</ele></trkpt><trkpt lat="39.585951" lon="19.914285"><ele>10.2</ele></trkpt><trkpt lat="39.585897" lon="19.914324"><ele>12.2</ele></trkpt><trkpt lat="39.585796" lon="19.914374"><ele>15.0</ele></trkpt><trkpt lat="39.585687" lon="19.914402"><ele>15.0</ele></trkpt><trkpt lat="39.585582" lon="19.914411"><ele>15.0</ele></trkpt><trkpt lat="39.585450" lon="19.914390"><ele>15.0</ele></trkpt><trkpt lat="39.585339" lon="19.914356"><ele>15.0</ele></trkpt><trkpt lat="39.585075" lon="19.914253"><ele>18.5</ele></trkpt><trkpt lat="39.585003" lon="19.914231"><ele>19.8</ele></trkpt><trkpt lat="39.584911" lon="19.914218"><ele>20.0</ele></trkpt><trkpt lat="39.584811" lon="19.914232"><ele>20.0</ele></trkpt><trkpt lat="39.584735" lon="19.914260"><ele>19.8</ele></trkpt><trkpt lat="39.584635" lon="19.914324"><ele>20.0</ele></trkpt><trkpt lat="39.584368" lon="19.914555"><ele>22.2</ele></trkpt><trkpt lat="39.584281" lon="19.914606"><ele>25.2</ele></trkpt><trkpt lat="39.584169" lon="19.914634"><ele>28.8</ele></trkpt><trkpt lat="39.583960" lon="19.914624"><ele>29.0</ele></trkpt><trkpt lat="39.583886" lon="19.914638"><ele>29.0</ele></trkpt><trkpt lat="39.583790" lon="19.914677"><ele>29.0</ele></trkpt><trkpt lat="39.583196" lon="19.914958"><ele>20.5</ele></trkpt><trkpt lat="39.583147" lon="19.914974"><ele>19.0</ele></trkpt><trkpt lat="39.583099" lon="19.914980"><ele>18.5</ele></trkpt><trkpt lat="39.583006" lon="19.914975"><ele>19.0</ele></trkpt><trkpt lat="39.582963" lon="19.914957"><ele>20.5</ele></trkpt><trkpt lat="39.582927" lon="19.914929"><ele>23.0</ele></trkpt><trkpt lat="39.582866" lon="19.914858"><ele>29.2</ele></trkpt><trkpt lat="39.582494" lon="19.914216"><ele>27.0</ele></trkpt><trkpt lat="39.582371" lon="19.913938"><ele>38.5</ele></trkpt><trkpt lat="39.582339" lon="19.913840"><ele>41.0</ele></trkpt><trkpt lat="39.582286" lon="19.913617"><ele>41.0</ele></trkpt><trkpt lat="39.582261" lon="19.913549"><ele>41.0</ele></trkpt><trkpt lat="39.582226" lon="19.913480"><ele>40.8</ele></trkpt><trkpt lat="39.582176" lon="19.913422"><ele>41.0</ele></trkpt><trkpt lat="39.582124" lon="19.913379"><ele>41.0</ele></trkpt><trkpt lat="39.582038" lon="19.913334"><ele>41.0</ele></trkpt><trkpt lat="39.581995" lon="19.913302"><ele>43.0</ele></trkpt><trkpt lat="39.581947" lon="19.913245"><ele>47.0</ele></trkpt><trkpt lat="39.581781" lon="19.913011"><ele>50.5</ele></trkpt><trkpt lat="39.581739" lon="19.912971"><ele>48.0</ele></trkpt><trkpt lat="39.581689" lon="19.912940"><ele>45.2</ele></trkpt><trkpt lat="39.581635" lon="19.912922"><ele>44.0</ele></trkpt><trkpt lat="39.581590" lon="19.912927"><ele>44.0</ele></trkpt><trkpt lat="39.581552" lon="19.912942"><ele>44.0</ele></trkpt><trkpt lat="39.581310" lon="19.913133"><ele>38.2</ele></trkpt><trkpt lat="39.581275" lon="19.913147"><ele>37.2</ele></trkpt><trkpt lat="39.581205" lon="19.913149"><ele>37.2</ele></trkpt><trkpt lat="39.581164" lon="19.913135"><ele>38.2</ele></trkpt><trkpt lat="39.581128" lon="19.913112"><ele>39.8</ele></trkpt><trkpt lat="39.581093" lon="19.913076"><ele>42.0</ele></trkpt><trkpt lat="39.580992" lon="19.912925"><ele>41.8</ele></trkpt><trkpt lat="39.580955" lon="19.912880"><ele>41.0</ele></trkpt><trkpt lat="39.580909" lon="19.912846"><ele>40.2</ele></trkpt><trkpt lat="39.580835" lon="19.912811"><ele>39.0</ele></trkpt><trkpt lat="39.580764" lon="19.912798"><ele>39.0</ele></trkpt><trkpt lat="39.580737" lon="19.912801"><ele>39.0</ele></trkpt><trkpt lat="39.580700" lon="19.912809"><ele>39.0</ele></trkpt><trkpt lat="39.580626" lon="19.912860"><ele>39.0</ele></trkpt><trkpt lat="39.580394" lon="19.913120"><ele>34.8</ele></trkpt><trkpt lat="39.580304" lon="19.913190"><ele>30.2</ele></trkpt><trkpt lat="39.580259" lon="19.913208"><ele>29.0</ele></trkpt><trkpt lat="39.580201" lon="19.913214"><ele>29.2</ele></trkpt><trkpt lat="39.580123" lon="19.913207"><ele>30.0</ele></trkpt><trkpt lat="39.579836" lon="19.913182"><ele>31.8</ele></trkpt><trkpt lat="39.579584" lon="19.913144"><ele>33.2</ele></trkpt><trkpt lat="39.579495" lon="19.913130"><ele>34.0</ele></trkpt><trkpt lat="39.579372" lon="19.913124"><ele>33.5</ele></trkpt><trkpt lat="39.579239" lon="19.913150"><ele>31.8</ele></trkpt><trkpt lat="39.579159" lon="19.913196"><ele>30.2</ele></trkpt><trkpt lat="39.579110" lon="19.913247"><ele>29.5</ele></trkpt><trkpt lat="39.579070" lon="19.913300"><ele>28.5</ele></trkpt><trkpt lat="39.579040" lon="19.913370"><ele>28.0</ele></trkpt><trkpt lat="39.579018" lon="19.913455"><ele>28.0</ele></trkpt><trkpt lat="39.579003" lon="19.913552"><ele>28.0</ele></trkpt><trkpt lat="39.578991" lon="19.913824"><ele>28.0</ele></trkpt><trkpt lat="39.578971" lon="19.914016"><ele>24.2</ele></trkpt><trkpt lat="39.578954" lon="19.914079"><ele>22.5</ele></trkpt><trkpt lat="39.578927" lon="19.914131"><ele>21.0</ele></trkpt><trkpt lat="39.578896" lon="19.914172"><ele>20.0</ele></trkpt><trkpt lat="39.578858" lon="19.914201"><ele>20.0</ele></trkpt><trkpt lat="39.578466" lon="19.914337"><ele>20.5</ele></trkpt><trkpt lat="39.578332" lon="19.914319"><ele>21.0</ele></trkpt><trkpt lat="39.578223" lon="19.914260"><ele>21.0</ele></trkpt><trkpt lat="39.577917" lon="19.914019"><ele>26.8</ele></trkpt><trkpt lat="39.577513" lon="19.913749"><ele>29.0</ele></trkpt><trkpt lat="39.577284" lon="19.913618"><ele>29.0</ele></trkpt><trkpt lat="39.577128" lon="19.913546"><ele>29.0</ele></trkpt><trkpt lat="39.577002" lon="19.913505"><ele>29.0</ele></trkpt><trkpt lat="39.576850" lon="19.913467"><ele>27.2</ele></trkpt><trkpt lat="39.576570" lon="19.913422"><ele>24.0</ele></trkpt><trkpt lat="39.576383" lon="19.913369"><ele>24.0</ele></trkpt><trkpt lat="39.576273" lon="19.913326"><ele>24.2</ele></trkpt><trkpt lat="39.576095" lon="19.913231"><ele>29.2</ele></trkpt><trkpt lat="39.575989" lon="19.913190"><ele>28.2</ele></trkpt><trkpt lat="39.575911" lon="19.913167"><ele>27.0</ele></trkpt><trkpt lat="39.575662" lon="19.913154"><ele>25.2</ele></trkpt><trkpt lat="39.575488" lon="19.913103"><ele>28.2</ele></trkpt><trkpt lat="39.575336" lon="19.913033"><ele>31.0</ele></trkpt><trkpt lat="39.575227" lon="19.912923"><ele>28.2</ele></trkpt><trkpt lat="39.575112" lon="19.912728"><ele>22.5</ele></trkpt><trkpt lat="39.574838" lon="19.912148"><ele>27.0</ele></trkpt><trkpt lat="39.574800" lon="19.912089"><ele>27.0</ele></trkpt><trkpt lat="39.574758" lon="19.912044"><ele>27.0</ele></trkpt><trkpt lat="39.574625" lon="19.911926"><ele>27.0</ele></trkpt><trkpt lat="39.574562" lon="19.911889"><ele>27.0</ele></trkpt><trkpt lat="39.574507" lon="19.911869"><ele>27.0</ele></trkpt><trkpt lat="39.574454" lon="19.911867"><ele>27.0</ele></trkpt><trkpt lat="39.574410" lon="19.911874"><ele>26.2</ele></trkpt><trkpt lat="39.574282" lon="19.911908"><ele>23.2</ele></trkpt><trkpt lat="39.574163" lon="19.911938"><ele>21.0</ele></trkpt><trkpt lat="39.573835" lon="19.912014"><ele>21.0</ele></trkpt><trkpt lat="39.573756" lon="19.912021"><ele>21.0</ele></trkpt><trkpt lat="39.573671" lon="19.912009"><ele>21.0</ele></trkpt><trkpt lat="39.573525" lon="19.911943"><ele>19.8</ele></trkpt><trkpt lat="39.573458" lon="19.911896"><ele>18.8</ele></trkpt><trkpt lat="39.573381" lon="19.911835"><ele>17.5</ele></trkpt><trkpt lat="39.573262" lon="19.911692"><ele>17.0</ele></trkpt><trkpt lat="39.573137" lon="19.911560"><ele>21.5</ele></trkpt><trkpt lat="39.573071" lon="19.911506"><ele>23.8</ele></trkpt><trkpt lat="39.572976" lon="19.911453"><ele>26.0</ele></trkpt><trkpt lat="39.572712" lon="19.911333"><ele>29.0</ele></trkpt><trkpt lat="39.572375" lon="19.911168"><ele>29.0</ele></trkpt><trkpt lat="39.572165" lon="19.911040"><ele>29.0</ele></trkpt><trkpt lat="39.572063" lon="19.911020"><ele>29.0</ele></trkpt><trkpt lat="39.571846" lon="19.911005"><ele>24.5</ele></trkpt><trkpt lat="39.571712" lon="19.910976"><ele>18.8</ele></trkpt><trkpt lat="39.571435" lon="19.910842"><ele>17.0</ele></trkpt><trkpt lat="39.570922" lon="19.910571"><ele>27.5</ele></trkpt><trkpt lat="39.570507" lon="19.910317"><ele>24.0</ele></trkpt><trkpt lat="39.570393" lon="19.910277"><ele>24.0</ele></trkpt><trkpt lat="39.570277" lon="19.910265"><ele>23.8</ele></trkpt><trkpt lat="39.569917" lon="19.910255"><ele>21.0</ele></trkpt><trkpt lat="39.569835" lon="19.910241"><ele>21.0</ele></trkpt><trkpt lat="39.569741" lon="19.910207"><ele>21.0</ele></trkpt><trkpt lat="39.569516" lon="19.910071"><ele>21.0</ele></trkpt><trkpt lat="39.568886" lon="19.909661"><ele>18.0</ele></trkpt><trkpt lat="39.568790" lon="19.909587"><ele>18.0</ele></trkpt><trkpt lat="39.568565" lon="19.909355"><ele>16.5</ele></trkpt><trkpt lat="39.568431" lon="19.909236"><ele>12.8</ele></trkpt><trkpt lat="39.568376" lon="19.909211"><ele>11.0</ele></trkpt><trkpt lat="39.568277" lon="19.909188"><ele>10.0</ele></trkpt><trkpt lat="39.567733" lon="19.909124"><ele>12.2</ele></trkpt><trkpt lat="39.567622" lon="19.909088"><ele>13.8</ele></trkpt><trkpt lat="39.567549" lon="19.909041"><ele>16.0</ele></trkpt><trkpt lat="39.567407" lon="19.908903"><ele>24.0</ele></trkpt><trkpt lat="39.567341" lon="19.908872"><ele>25.0</ele></trkpt><trkpt lat="39.567265" lon="19.908859"><ele>25.0</ele></trkpt><trkpt lat="39.567173" lon="19.908863"><ele>25.0</ele></trkpt><trkpt lat="39.567078" lon="19.908902"><ele>24.0</ele></trkpt><trkpt lat="39.566974" lon="19.908959"><ele>20.5</ele></trkpt><trkpt lat="39.566919" lon="19.909013"><ele>17.5</ele></trkpt><trkpt lat="39.566700" lon="19.909324"><ele>12.2</ele></trkpt><trkpt lat="39.566559" lon="19.909499"><ele>13.0</ele></trkpt><trkpt lat="39.566474" lon="19.909596"><ele>12.2</ele></trkpt><trkpt lat="39.566302" lon="19.909768"><ele>11.5</ele></trkpt><trkpt lat="39.566211" lon="19.909817"><ele>11.0</ele></trkpt><trkpt lat="39.565989" lon="19.909848"><ele>10.0</ele></trkpt><trkpt lat="39.565913" lon="19.909872"><ele>9.8</ele></trkpt><trkpt lat="39.565846" lon="19.909905"><ele>9.5</ele></trkpt><trkpt lat="39.565741" lon="19.909975"><ele>9.0</ele></trkpt><trkpt lat="39.565536" lon="19.910144"><ele>9.0</ele></trkpt><trkpt lat="39.565400" lon="19.910206"><ele>9.0</ele></trkpt><trkpt lat="39.565220" lon="19.910214"><ele>8.8</ele></trkpt><trkpt lat="39.564953" lon="19.910184"><ele>8.0</ele></trkpt><trkpt lat="39.564538" lon="19.910156"><ele>8.0</ele></trkpt><trkpt lat="39.563924" lon="19.910142"><ele>7.0</ele></trkpt><trkpt lat="39.563367" lon="19.910146"><ele>11.2</ele></trkpt><trkpt lat="39.562482" lon="19.910169"><ele>12.0</ele></trkpt><trkpt lat="39.562080" lon="19.910245"><ele>12.0</ele></trkpt><trkpt lat="39.561893" lon="19.910320"><ele>12.5</ele></trkpt><trkpt lat="39.561751" lon="19.910406"><ele>14.0</ele></trkpt><trkpt lat="39.561536" lon="19.910543"><ele>15.0</ele></trkpt><trkpt lat="39.561405" lon="19.910634"><ele>14.0</ele></trkpt><trkpt lat="39.561313" lon="19.910709"><ele>13.2</ele></trkpt><trkpt lat="39.561230" lon="19.910757"><ele>12.8</ele></trkpt><trkpt lat="39.561105" lon="19.910790"><ele>12.2</ele></trkpt><trkpt lat="39.560987" lon="19.910789"><ele>11.8</ele></trkpt><trkpt lat="39.560763" lon="19.910759"><ele>12.0</ele></trkpt><trkpt lat="39.560593" lon="19.910749"><ele>12.5</ele></trkpt><trkpt lat="39.560498" lon="19.910727"><ele>13.5</ele></trkpt><trkpt lat="39.560373" lon="19.910719"><ele>13.8</ele></trkpt><trkpt lat="39.560155" lon="19.910796"><ele>11.8</ele></trkpt><trkpt lat="39.559923" lon="19.910925"><ele>12.0</ele></trkpt><trkpt lat="39.559627" lon="19.911124"><ele>12.0</ele></trkpt><trkpt lat="39.559521" lon="19.911178"><ele>12.0</ele></trkpt><trkpt lat="39.559416" lon="19.911205"><ele>12.5</ele></trkpt><trkpt lat="39.558563" lon="19.911276"><ele>20.2</ele></trkpt><trkpt lat="39.558160" lon="19.911362"><ele>27.0</ele></trkpt><trkpt lat="39.557995" lon="19.911408"><ele>25.8</ele></trkpt><trkpt lat="39.557917" lon="19.911419"><ele>25.0</ele></trkpt><trkpt lat="39.557624" lon="19.911409"><ele>24.5</ele></trkpt><trkpt lat="39.557517" lon="19.911421"><ele>23.2</ele></trkpt><trkpt lat="39.557425" lon="19.911453"><ele>21.5</ele></trkpt><trkpt lat="39.557080" lon="19.911617"><ele>12.5</ele></trkpt><trkpt lat="39.556987" lon="19.911643"><ele>11.2</ele></trkpt><trkpt lat="39.556894" lon="19.911638"><ele>11.5</ele></trkpt><trkpt lat="39.556808" lon="19.911619"><ele>12.5</ele></trkpt><trkpt lat="39.556583" lon="19.911493"><ele>20.0</ele></trkpt><trkpt lat="39.556532" lon="19.911483"><ele>20.5</ele></trkpt><trkpt lat="39.556398" lon="19.911503"><ele>19.2</ele></trkpt><trkpt lat="39.556107" lon="19.911588"><ele>14.5</ele></trkpt><trkpt lat="39.555852" lon="19.911620"><ele>19.2</ele></trkpt><trkpt lat="39.555772" lon="19.911638"><ele>18.2</ele></trkpt><trkpt lat="39.555666" lon="19.911702"><ele>16.0</ele></trkpt><trkpt lat="39.555504" lon="19.911843"><ele>16.0</ele></trkpt><trkpt lat="39.555304" lon="19.911970"><ele>16.0</ele></trkpt><trkpt lat="39.555160" lon="19.912028"><ele>18.0</ele></trkpt><trkpt lat="39.554952" lon="19.912081"><ele>21.0</ele></trkpt><trkpt lat="39.554840" lon="19.912119"><ele>21.0</ele></trkpt><trkpt lat="39.554616" lon="19.912231"><ele>20.5</ele></trkpt><trkpt lat="39.554417" lon="19.912371"><ele>13.5</ele></trkpt><trkpt lat="39.554242" lon="19.912449"><ele>12.2</ele></trkpt><trkpt lat="39.553910" lon="19.912473"><ele>12.0</ele></trkpt><trkpt lat="39.553806" lon="19.912488"><ele>10.8</ele></trkpt><trkpt lat="39.553695" lon="19.912518"><ele>10.0</ele></trkpt><trkpt lat="39.553564" lon="19.912571"><ele>11.0</ele></trkpt><trkpt lat="39.553272" lon="19.912752"><ele>16.0</ele></trkpt><trkpt lat="39.553191" lon="19.912789"><ele>16.0</ele></trkpt><trkpt lat="39.553088" lon="19.912817"><ele>16.0</ele></trkpt><trkpt lat="39.552994" lon="19.912823"><ele>16.0</ele></trkpt><trkpt lat="39.552883" lon="19.912813"><ele>16.0</ele></trkpt><trkpt lat="39.552677" lon="19.912770"><ele>14.0</ele></trkpt><trkpt lat="39.552043" lon="19.912529"><ele>11.0</ele></trkpt><trkpt lat="39.551492" lon="19.912346"><ele>18.8</ele></trkpt><trkpt lat="39.551154" lon="19.912254"><ele>24.8</ele></trkpt><trkpt lat="39.550705" lon="19.912232"><ele>24.5</ele></trkpt><trkpt lat="39.550345" lon="19.912242"><ele>24.0</ele></trkpt><trkpt lat="39.549959" lon="19.912270"><ele>21.0</ele></trkpt><trkpt lat="39.549864" lon="19.912265"><ele>21.2</ele></trkpt><trkpt lat="39.549727" lon="19.912249"><ele>21.8</ele></trkpt><trkpt lat="39.549110" lon="19.912108"><ele>14.0</ele></trkpt><trkpt lat="39.548902" lon="19.912097"><ele>14.0</ele></trkpt><trkpt lat="39.548708" lon="19.912104"><ele>14.0</ele></trkpt><trkpt lat="39.548552" lon="19.912120"><ele>13.2</ele></trkpt><trkpt lat="39.548368" lon="19.912166"><ele>11.2</ele></trkpt><trkpt lat="39.548128" lon="19.912256"><ele>10.0</ele></trkpt><trkpt lat="39.547880" lon="19.912385"><ele>6.8</ele></trkpt><trkpt lat="39.547277" lon="19.912815"><ele>3.0</ele></trkpt><trkpt lat="39.547120" lon="19.912929"><ele>3.0</ele></trkpt><trkpt lat="39.546896" lon="19.913106"><ele>3.0</ele></trkpt><trkpt lat="39.546459" lon="19.913450"><ele>3.0</ele></trkpt><trkpt lat="39.546424" lon="19.913475"><ele>3.0</ele></trkpt><trkpt lat="39.545528" lon="19.914074"><ele>3.0</ele></trkpt><trkpt lat="39.545479" lon="19.914109"><ele>3.0</ele></trkpt><trkpt lat="39.545430" lon="19.914145"><ele>3.0</ele></trkpt><trkpt lat="39.545306" lon="19.914211"><ele>3.0</ele></trkpt><trkpt lat="39.545044" lon="19.914316"><ele>2.0</ele></trkpt><trkpt lat="39.544890" lon="19.914366"><ele>2.0</ele></trkpt><trkpt lat="39.544709" lon="19.914412"><ele>2.0</ele></trkpt><trkpt lat="39.544621" lon="19.914431"><ele>2.0</ele></trkpt><trkpt lat="39.544488" lon="19.914447"><ele>2.0</ele></trkpt><trkpt lat="39.544354" lon="19.914449"><ele>2.0</ele></trkpt><trkpt lat="39.543753" lon="19.914371"><ele>2.0</ele></trkpt><trkpt lat="39.543751" lon="19.914176"><ele>2.0</ele></trkpt><trkpt lat="39.543774" lon="19.914072"><ele>2.5</ele></trkpt><trkpt lat="39.543819" lon="19.913988"><ele>3.2</ele></trkpt><trkpt lat="39.543869" lon="19.913942"><ele>3.5</ele></trkpt><trkpt lat="39.544145" lon="19.913864"><ele>4.0</ele></trkpt><trkpt lat="39.544166" lon="19.913834"><ele>4.0</ele></trkpt></trkseg></trk></gpx>